start=new Date('2022-11-16T00:00:00.000Z').valueOf();
sats=[{"MEAN_MOTION":"15.01254875","SEMIMAJOR_AXIS":"6941.163","MEAN_MOTION_DDOT":"0.0000000000000","PERIOD":"95.920","OBJECT_ID":"2022-077P","LAUNCH_DATE":"2022-07-11","OBJECT_NAME":"STARLINK-4314","RCS_SIZE":"LARGE","EPHEMERIS_TYPE":"0","CLASSIFICATION_TYPE":"U","INCLINATION":"97.6521","MEAN_ELEMENT_THEORY":"SGP4","TLE_LINE1":"1 53056U 22077P   22319.81894384  .00001283  00000-0  10447-3 0  9992","ARG_OF_PERICENTER":"26.7728","ECCENTRICITY":"0.00014710","TIME_SYSTEM":"UTC","REF_FRAME":"TEME","PERIAPSIS":"562.007","APOAPSIS":"564.049","MEAN_MOTION_DOT":"0.00001283","OBJECT_TYPE":"PAYLOAD","GP_ID":"217907955","COUNTRY_CODE":"US","CENTER_NAME":"EARTH","ELEMENT_SET_NO":"999","BSTAR":"0.00010447000000","NORAD_CAT_ID":"53056","MEAN_ANOMALY":"333.3572","EPOCH":"2022-11-15T19:39:16.747776","DECAY_DATE":null,"REV_AT_EPOCH":"1939","SITE":"AFWTR","TLE_LINE2":"2 53056  97.6521 138.9456 0001471  26.7728 333.3572 15.01254875 19398","FILE":"3657961","RA_OF_ASC_NODE":"138.9456"},{"BSTAR":"0.00002512800000","DECAY_DATE":null,"MEAN_ANOMALY":"269.6667","EPOCH":"2022-11-15T19:28:36.906528","NORAD_CAT_ID":"53057","SITE":"AFWTR","REV_AT_EPOCH":"1939","TLE_LINE2":"2 53057  97.6526 138.9292 0000423  90.4606 269.6667 15.01256010 19390","FILE":"3657961","RA_OF_ASC_NODE":"138.9292","REF_FRAME":"TEME","TIME_SYSTEM":"UTC","APOAPSIS":"563.318","PERIAPSIS":"562.731","MEAN_MOTION_DOT":"0.00000264","COUNTRY_CODE":"US","ELEMENT_SET_NO":"999","CENTER_NAME":"EARTH","GP_ID":"217907419","OBJECT_TYPE":"PAYLOAD","INCLINATION":"97.6526","CLASSIFICATION_TYPE":"U","EPHEMERIS_TYPE":"0","MEAN_ELEMENT_THEORY":"SGP4","ECCENTRICITY":"0.00004230","ARG_OF_PERICENTER":"90.4606","TLE_LINE1":"1 53057U 22077Q   22319.81153827  .00000264  00000-0  25128-4 0  9994","SEMIMAJOR_AXIS":"6941.159","MEAN_MOTION":"15.01256010","MEAN_MOTION_DDOT":"0.0000000000000","OBJECT_ID":"2022-077Q","PERIOD":"95.920","OBJECT_NAME":"STARLINK-4252","RCS_SIZE":"LARGE","LAUNCH_DATE":"2022-07-11"},{"INCLINATION":"97.6520","CLASSIFICATION_TYPE":"U","EPHEMERIS_TYPE":"0","MEAN_ELEMENT_THEORY":"SGP4","ARG_OF_PERICENTER":"61.7844","ECCENTRICITY":"0.00005450","TLE_LINE1":"1 53058U 22077R   22319.81548899  .00003507  00000-0  27752-3 0  9999","MEAN_MOTION":"15.01260486","SEMIMAJOR_AXIS":"6941.145","MEAN_MOTION_DDOT":"0.0000000000000","OBJECT_ID":"2022-077R","PERIOD":"95.919","LAUNCH_DATE":"2022-07-11","OBJECT_NAME":"STARLINK-4317","RCS_SIZE":"LARGE","BSTAR":"0.00027752000000","DECAY_DATE":null,"NORAD_CAT_ID":"53058","EPOCH":"2022-11-15T19:34:18.248736","MEAN_ANOMALY":"298.3435","SITE":"AFWTR","REV_AT_EPOCH":"1939","TLE_LINE2":"2 53058  97.6520 138.9400 0000545  61.7844 298.3435 15.01260486 19390","RA_OF_ASC_NODE":"138.9400","FILE":"3657961","TIME_SYSTEM":"UTC","REF_FRAME":"TEME","PERIAPSIS":"562.632","APOAPSIS":"563.389","MEAN_MOTION_DOT":"0.00003507","GP_ID":"217908124","ELEMENT_SET_NO":"999","COUNTRY_CODE":"US","CENTER_NAME":"EARTH","OBJECT_TYPE":"PAYLOAD"},{"TLE_LINE1":"1 53059U 22077S   22319.47481667  .00001012  00000-0  83366-4 0  9994","ARG_OF_PERICENTER":"97.7655","ECCENTRICITY":"0.00012660","MEAN_ELEMENT_THEORY":"SGP4","CLASSIFICATION_TYPE":"U","EPHEMERIS_TYPE":"0","INCLINATION":"97.6525","LAUNCH_DATE":"2022-07-11","RCS_SIZE":"LARGE","OBJECT_NAME":"STARLINK-4320","PERIOD":"95.919","OBJECT_ID":"2022-077S","MEAN_MOTION_DDOT":"0.0000000000000","MEAN_MOTION":"15.01269390","SEMIMAJOR_AXIS":"6941.118","TLE_LINE2":"2 53059  97.6525 138.5961 0001266  97.7655 262.3713 15.01269390 19342","RA_OF_ASC_NODE":"138.5961","FILE":"3657603","REV_AT_EPOCH":"1934","SITE":"AFWTR","NORAD_CAT_ID":"53059","EPOCH":"2022-11-15T11:23:44.160288","MEAN_ANOMALY":"262.3713","DECAY_DATE":null,"BSTAR":"0.00008336600000","OBJECT_TYPE":"PAYLOAD","GP_ID":"217848327","CENTER_NAME":"EARTH","COUNTRY_CODE":"US","ELEMENT_SET_NO":"999","MEAN_MOTION_DOT":"0.00001012","PERIAPSIS":"562.104","APOAPSIS":"563.862","TIME_SYSTEM":"UTC","REF_FRAME":"TEME"},{"BSTAR":"0.00003363900000","DECAY_DATE":null,"EPOCH":"2022-11-15T19:31:17.326272","MEAN_ANOMALY":"277.5058","NORAD_CAT_ID":"53060","SITE":"AFWTR","REV_AT_EPOCH":"1939","TLE_LINE2":"2 53060  97.6528 138.9322 0000210  82.6190 277.5058 15.01264675 19393","FILE":"3657961","RA_OF_ASC_NODE":"138.9322","TIME_SYSTEM":"UTC","REF_FRAME":"TEME","APOAPSIS":"563.143","PERIAPSIS":"562.852","MEAN_MOTION_DOT":"0.00000373","COUNTRY_CODE":"US","CENTER_NAME":"EARTH","ELEMENT_SET_NO":"999","GP_ID":"217908267","OBJECT_TYPE":"PAYLOAD","INCLINATION":"97.6528","CLASSIFICATION_TYPE":"U","EPHEMERIS_TYPE":"0","MEAN_ELEMENT_THEORY":"SGP4","ECCENTRICITY":"0.00002100","ARG_OF_PERICENTER":"82.6190","TLE_LINE1":"1 53060U 22077T   22319.81339498  .00000373  00000-0  33639-4 0  9995","SEMIMAJOR_AXIS":"6941.132","MEAN_MOTION":"15.01264675","MEAN_MOTION_DDOT":"0.0000000000000","OBJECT_ID":"2022-077T","PERIOD":"95.919","OBJECT_NAME":"STARLINK-4305","RCS_SIZE":"LARGE","LAUNCH_DATE":"2022-07-11"},{"RA_OF_ASC_NODE":"138.9200","TLE_LINE2":"2 53061  97.6532 138.9200 0001171  70.3597 289.7753 15.01246241 19392","FILE":"3657961","SITE":"AFWTR","REV_AT_EPOCH":"1939","DECAY_DATE":null,"NORAD_CAT_ID":"53061","MEAN_ANOMALY":"289.7753","EPOCH":"2022-11-15T19:20:39.000480","BSTAR":"-0.00009722500000","GP_ID":"217907784","ELEMENT_SET_NO":"999","COUNTRY_CODE":"US","CENTER_NAME":"EARTH","OBJECT_TYPE":"PAYLOAD","MEAN_MOTION_DOT":"-0.00001307","PERIAPSIS":"562.241","APOAPSIS":"563.867","TIME_SYSTEM":"UTC","REF_FRAME":"TEME","ARG_OF_PERICENTER":"70.3597","ECCENTRICITY":"0.00011710","TLE_LINE1":"1 53061U 22077U   22319.80600695 -.00001307  00000-0 -97225-4 0  9996","MEAN_ELEMENT_THEORY":"SGP4","INCLINATION":"97.6532","CLASSIFICATION_TYPE":"U","EPHEMERIS_TYPE":"0","LAUNCH_DATE":"2022-07-11","RCS_SIZE":"LARGE","OBJECT_NAME":"STARLINK-4308","OBJECT_ID":"2022-077U","PERIOD":"95.920","MEAN_MOTION_DDOT":"0.0000000000000","MEAN_MOTION":"15.01246241","SEMIMAJOR_AXIS":"6941.189"},{"INCLINATION":"97.6527","EPHEMERIS_TYPE":"0","CLASSIFICATION_TYPE":"U","MEAN_ELEMENT_THEORY":"SGP4","ARG_OF_PERICENTER":"122.5555","ECCENTRICITY":"0.00007250","TLE_LINE1":"1 53062U 22077V   22319.80969292  .00004612  00000-0  36337-3 0  9994","MEAN_MOTION":"15.01262912","SEMIMAJOR_AXIS":"6941.138","MEAN_MOTION_DDOT":"0.0000000000000","OBJECT_ID":"2022-077V","PERIOD":"95.919","LAUNCH_DATE":"2022-07-11","RCS_SIZE":"LARGE","OBJECT_NAME":"STARLINK-4311","BSTAR":"0.00036337000000","DECAY_DATE":null,"NORAD_CAT_ID":"53062","EPOCH":"2022-11-15T19:25:57.468288","MEAN_ANOMALY":"237.5739","SITE":"AFWTR","REV_AT_EPOCH":"1939","FILE":"3657961","TLE_LINE2":"2 53062  97.6527 138.9274 0000725 122.5555 237.5739 15.01262912 19394","RA_OF_ASC_NODE":"138.9274","REF_FRAME":"TEME","TIME_SYSTEM":"UTC","PERIAPSIS":"562.500","APOAPSIS":"563.506","MEAN_MOTION_DOT":"0.00004612","GP_ID":"217908437","COUNTRY_CODE":"US","CENTER_NAME":"EARTH","ELEMENT_SET_NO":"999","OBJECT_TYPE":"PAYLOAD"},{"CLASSIFICATION_TYPE":"U","EPHEMERIS_TYPE":"0","INCLINATION":"97.6530","MEAN_ELEMENT_THEORY":"SGP4","TLE_LINE1":"1 53063U 22077W   22319.60308001  .00000658  00000-0  56972-4 0  9992","ECCENTRICITY":"0.00016680","ARG_OF_PERICENTER":"292.8278","SEMIMAJOR_AXIS":"6943.643","MEAN_MOTION":"15.00450704","MEAN_MOTION_DDOT":"0.0000000000000","PERIOD":"95.971","OBJECT_ID":"2022-077W","OBJECT_NAME":"STARLINK-4307","RCS_SIZE":"LARGE","LAUNCH_DATE":"2022-07-11","BSTAR":"0.00005697200000","EPOCH":"2022-11-15T14:28:26.112864","MEAN_ANOMALY":"67.2770","NORAD_CAT_ID":"53063","DECAY_DATE":null,"REV_AT_EPOCH":"1937","SITE":"AFWTR","TLE_LINE2":"2 53063  97.6530 138.8284 0001668 292.8278  67.2770 15.00450704 19377","FILE":"3657961","RA_OF_ASC_NODE":"138.8284","TIME_SYSTEM":"UTC","REF_FRAME":"TEME","APOAPSIS":"566.666","PERIAPSIS":"564.349","MEAN_MOTION_DOT":"0.00000658","OBJECT_TYPE":"PAYLOAD","CENTER_NAME":"EARTH","COUNTRY_CODE":"US","ELEMENT_SET_NO":"999","GP_ID":"217907614"},{"ECCENTRICITY":"0.00012400","ARG_OF_PERICENTER":"105.4455","TLE_LINE1":"1 53064U 22077X   22319.80783956  .00000166  00000-0  17508-4 0  9997","MEAN_ELEMENT_THEORY":"SGP4","INCLINATION":"97.6535","CLASSIFICATION_TYPE":"U","EPHEMERIS_TYPE":"0","OBJECT_NAME":"STARLINK-4313","RCS_SIZE":"LARGE","LAUNCH_DATE":"2022-07-11","OBJECT_ID":"2022-077X","PERIOD":"95.919","MEAN_MOTION_DDOT":"0.0000000000000","SEMIMAJOR_AXIS":"6941.143","MEAN_MOTION":"15.01261204","RA_OF_ASC_NODE":"138.9238","TLE_LINE2":"2 53064  97.6535 138.9238 0001240 105.4455 254.6906 15.01261204 19396","FILE":"3657961","SITE":"AFWTR","REV_AT_EPOCH":"1939","DECAY_DATE":null,"EPOCH":"2022-11-15T19:23:17.337984","MEAN_ANOMALY":"254.6906","NORAD_CAT_ID":"53064","BSTAR":"0.00001750800000","COUNTRY_CODE":"US","ELEMENT_SET_NO":"999","CENTER_NAME":"EARTH","GP_ID":"217907956","OBJECT_TYPE":"PAYLOAD","MEAN_MOTION_DOT":"0.00000166","APOAPSIS":"563.869","PERIAPSIS":"562.147","TIME_SYSTEM":"UTC","REF_FRAME":"TEME"},{"SITE":"AFWTR","REV_AT_EPOCH":"1939","RA_OF_ASC_NODE":"138.9162","TLE_LINE2":"2 53065  97.6553 138.9162 0001449 100.3494 259.7893 15.01261414 19395","FILE":"3657961","BSTAR":"0.00010504000000","DECAY_DATE":null,"NORAD_CAT_ID":"53065","MEAN_ANOMALY":"259.7893","EPOCH":"2022-11-15T19:15:17.459424","MEAN_MOTION_DOT":"0.00001290","GP_ID":"217907420","ELEMENT_SET_NO":"999","COUNTRY_CODE":"US","CENTER_NAME":"EARTH","OBJECT_TYPE":"PAYLOAD","TIME_SYSTEM":"UTC","REF_FRAME":"TEME","PERIAPSIS":"562.002","APOAPSIS":"564.013","ARG_OF_PERICENTER":"100.3494","ECCENTRICITY":"0.00014490","TLE_LINE1":"1 53065U 22077Y   22319.80228541  .00001290  00000-0  10504-3 0  9999","INCLINATION":"97.6553","EPHEMERIS_TYPE":"0","CLASSIFICATION_TYPE":"U","MEAN_ELEMENT_THEORY":"SGP4","OBJECT_ID":"2022-077Y","PERIOD":"95.919","LAUNCH_DATE":"2022-07-11","OBJECT_NAME":"STARLINK-4312","RCS_SIZE":"LARGE","MEAN_MOTION":"15.01261414","SEMIMAJOR_AXIS":"6941.142","MEAN_MOTION_DDOT":"0.0000000000000"}];
